{"fetched_at":"2026-07-18T17:30:22.756Z","source":"https://celestrak.org/NORAD/elements/gp.php?NAME=TIGER&FORMAT=JSON","constellation":"oq-technology","records":[{"OBJECT_NAME":"TIGER-8","OBJECT_ID":"2024-043Y","EPOCH":"2026-07-17T23:36:50.090112","CLASSIFICATION_TYPE":"U","MEAN_MOTION":15.45197146,"ECCENTRICITY":0.00089092,"INCLINATION":97.558,"RA_OF_ASC_NODE":348.8422,"ARG_OF_PERICENTER":94.3662,"MEAN_ANOMALY":265.8605,"EPHEMERIS_TYPE":0,"NORAD_CAT_ID":59120,"ELEMENT_SET_NO":999,"REV_AT_EPOCH":13254,"BSTAR":0.00010979035,"MEAN_MOTION_DOT":0.00005122,"MEAN_MOTION_DDOT":0},{"OBJECT_NAME":"TIGER-7","OBJECT_ID":"2024-043AV","EPOCH":"2026-07-17T22:42:15.919776","CLASSIFICATION_TYPE":"U","MEAN_MOTION":15.49386492,"ECCENTRICITY":0.00067218,"INCLINATION":97.552,"RA_OF_ASC_NODE":351.3263,"ARG_OF_PERICENTER":69.2812,"MEAN_ANOMALY":290.9158,"EPHEMERIS_TYPE":0,"NORAD_CAT_ID":59141,"ELEMENT_SET_NO":999,"REV_AT_EPOCH":13273,"BSTAR":0.00012334451,"MEAN_MOTION_DOT":0.00006669,"MEAN_MOTION_DDOT":0}]}
