TIGER-8                 
1 59120U 24043Y   26198.98391308  .00005122  00000+0  10979-3 0  9995
2 59120  97.5580 348.8422 0008909  94.3662 265.8605 15.45197146132540
TIGER-7                 
1 59141U 24043AV  26198.94601759  .00006669  00000+0  12334-3 0  9992
2 59141  97.5520 351.3263 0006721  69.2812 290.9158 15.49386492132738
